{"type":"Feature","properties":{"MUN":"UNION BEACH BORO","COUNTY":"MONMOUTH","MUN_LABEL":"Union Beach Borough","MUN_TYPE":"Borough","NAME":"Union Beach Borough","GNIS_NAME":"Borough of Union Beach"},"geometry":{"type":"Polygon","coordinates":[[[-74.1481909,40.4442692],[-74.1558734,40.4436467],[-74.1559739,40.4384671],[-74.1565422,40.4384478],[-74.1572721,40.4384249],[-74.1579225,40.4384018],[-74.1583202,40.4383887],[-74.1584017,40.4383839],[-74.1586992,40.438372],[-74.1590688,40.4383552],[-74.1593294,40.4383406],[-74.1594339,40.4383348],[-74.1602258,40.4382878],[-74.1613009,40.4382295],[-74.1628498,40.4381447],[-74.162968,40.4381377],[-74.163566,40.4381023],[-74.1645467,40.4380511],[-74.1648994,40.4380326],[-74.1659475,40.4379749],[-74.1667243,40.4379307],[-74.1671974,40.4379064],[-74.1679971,40.4378593],[-74.1694854,40.4377783],[-74.1698688,40.4377574],[-74.1710854,40.4376966],[-74.1716937,40.437659],[-74.1719886,40.4376348],[-74.1721302,40.4376219],[-74.1722553,40.4376105],[-74.1724894,40.437579],[-74.1729201,40.4375123],[-74.1732338,40.4374489],[-74.1734812,40.4373916],[-74.173492,40.4374034],[-74.1735648,40.4374835],[-74.1736324,40.4375436],[-74.1737575,40.4376199],[-74.1738774,40.4376801],[-74.1740092,40.4377368],[-74.1741105,40.437761],[-74.1741507,40.4377702],[-74.174328,40.4378106],[-74.1744282,40.4378334],[-74.1750848,40.4379855],[-74.1751942,40.4380108],[-74.1757615,40.4381422],[-74.1760487,40.4382099],[-74.1769169,40.4384149],[-74.1772942,40.4385039],[-74.1789079,40.4388849],[-74.1794126,40.4390007],[-74.1796121,40.4390203],[-74.1796869,40.4390205],[-74.17974,40.4390126],[-74.1798252,40.438778],[-74.1800085,40.4382734],[-74.180103,40.4380687],[-74.1801577,40.4379811],[-74.1802843,40.4380025],[-74.1818708,40.4382796],[-74.1820543,40.4383074],[-74.1824994,40.4383859],[-74.1830702,40.4384865],[-74.1833456,40.4385308],[-74.184314,40.4386863],[-74.1844289,40.4387047],[-74.1856194,40.4389034],[-74.186718,40.4390963],[-74.1870528,40.4391551],[-74.1881311,40.4393343],[-74.1882256,40.4393434],[-74.1882174,40.4393876],[-74.1882154,40.4393934],[-74.1882079,40.4394155],[-74.1882007,40.4394343],[-74.1881877,40.4394558],[-74.1881776,40.4394738],[-74.1881646,40.4394935],[-74.1881445,40.4395141],[-74.188115,40.4395365],[-74.1880855,40.4395562],[-74.1880513,40.4395804],[-74.1880017,40.4396153],[-74.1879645,40.4396386],[-74.1879362,40.4396502],[-74.1878962,40.4396609],[-74.1878539,40.4396652],[-74.1878044,40.4396696],[-74.1877478,40.4396687],[-74.1877433,40.4396694],[-74.187703,40.4396677],[-74.1876574,40.4396692],[-74.1875974,40.4396717],[-74.187548,40.4396779],[-74.1875015,40.4396902],[-74.1874486,40.4397193],[-74.1874278,40.4397355],[-74.1874121,40.439751],[-74.1873821,40.4397856],[-74.1873535,40.4398269],[-74.1873281,40.4398728],[-74.1873075,40.439911],[-74.1871637,40.4401501],[-74.1871594,40.4401599],[-74.1871585,40.4401715],[-74.1871575,40.4401826],[-74.1871578,40.4401937],[-74.1871609,40.4402073],[-74.1871628,40.4402139],[-74.1871683,40.4402232],[-74.1871777,40.4402325],[-74.1871908,40.44024],[-74.1872716,40.4402663],[-74.1873194,40.4402801],[-74.1873651,40.440291],[-74.1874286,40.4402993],[-74.1875015,40.4403083],[-74.1875558,40.4403125],[-74.1876124,40.4403248],[-74.1876821,40.440343],[-74.1877492,40.4403664],[-74.1878241,40.4403958],[-74.187882,40.4404251],[-74.187949,40.4404635],[-74.1880146,40.440512],[-74.1880868,40.4405635],[-74.1881209,40.4405858],[-74.1881485,40.4405999],[-74.1881828,40.4406061],[-74.1882229,40.4406072],[-74.1882704,40.4406053],[-74.1883389,40.4405974],[-74.1884338,40.4405896],[-74.1885023,40.4405818],[-74.188609,40.440568],[-74.1886756,40.4405651],[-74.1887546,40.4405674],[-74.188827,40.4405756],[-74.1888915,40.4405838],[-74.1889441,40.440596],[-74.1890033,40.4406163],[-74.1890388,40.4406396],[-74.1890728,40.4406739],[-74.189101,40.4407112],[-74.1891232,40.4407535],[-74.1891584,40.4408241],[-74.1891961,40.4409349],[-74.1892101,40.4410416],[-74.1892129,40.4411382],[-74.1892117,40.4411899],[-74.1892103,40.4412315],[-74.1892125,40.4412796],[-74.1892344,40.4413496],[-74.1892526,40.4413899],[-74.189284,40.4414403],[-74.1893232,40.4414957],[-74.1893625,40.4415502],[-74.1894122,40.4416399],[-74.1894473,40.4417396],[-74.1894824,40.4419211],[-74.1895612,40.4420688],[-74.1896021,40.4421858],[-74.1896194,40.4422395],[-74.1896287,40.4422907],[-74.1896302,40.4423199],[-74.1896205,40.4423503],[-74.1895964,40.4423832],[-74.1895468,40.4424281],[-74.1894247,40.4424951],[-74.1893592,40.4425366],[-74.1892912,40.4425869],[-74.189246,40.4426377],[-74.1892046,40.44269],[-74.1891573,40.4427482],[-74.1891218,40.4427945],[-74.189047,40.4428796],[-74.1889112,40.4430139],[-74.1888169,40.4430885],[-74.1887442,40.4431347],[-74.1886491,40.4431644],[-74.188604,40.4431702],[-74.1885727,40.4431686],[-74.1885374,40.4431596],[-74.1885101,40.4431461],[-74.188473,40.4431085],[-74.1884204,40.4430545],[-74.1883716,40.443014],[-74.1883149,40.4429764],[-74.1881958,40.4429177],[-74.1880589,40.4428545],[-74.187967,40.4428183],[-74.1878961,40.4427887],[-74.1878091,40.442758],[-74.1877185,40.4427309],[-74.1875015,40.4426839],[-74.1874286,40.4426686],[-74.1874005,40.4426627],[-74.1873671,40.4426609],[-74.1873237,40.4426608],[-74.1872775,40.4426606],[-74.1872327,40.4426627],[-74.1872023,40.442666],[-74.1871748,40.4426725],[-74.1871459,40.4426824],[-74.1871198,40.4426934],[-74.1870633,40.4427241],[-74.1870184,40.4427516],[-74.186959,40.4427879],[-74.1868531,40.4428549],[-74.1867271,40.4429297],[-74.1866514,40.4429699],[-74.1865609,40.4430064],[-74.1864777,40.4430518],[-74.1863907,40.4431105],[-74.1863621,40.4431323],[-74.1863424,40.4431531],[-74.1863209,40.4431752],[-74.1862973,40.4432077],[-74.1862853,40.4432315],[-74.1862706,40.4432615],[-74.1862544,40.4432993],[-74.1862382,40.4433404],[-74.1862234,40.4433827],[-74.1862086,40.4434427],[-74.1861997,40.4434861],[-74.1861796,40.4435651],[-74.1861692,40.4436151],[-74.1861588,40.4436629],[-74.1861484,40.4436985],[-74.1861322,40.4437441],[-74.1860896,40.4438163],[-74.1860442,40.443874],[-74.1860105,40.4439107],[-74.1859623,40.4439528],[-74.1859096,40.4440039],[-74.1858343,40.4440649],[-74.1857363,40.4441536],[-74.1856529,40.444218],[-74.1855769,40.4442823],[-74.1854702,40.4443577],[-74.185376,40.444413],[-74.185322,40.4444396],[-74.1852791,40.4444593],[-74.1852009,40.4444827],[-74.1851193,40.4445047],[-74.1850136,40.4445245],[-74.1849611,40.444531],[-74.1848912,40.4445364],[-74.1848446,40.4445385],[-74.1847819,40.4445416],[-74.1847061,40.444547],[-74.184658,40.4445569],[-74.1846143,40.4445701],[-74.1846093,40.4445725],[-74.1845663,40.4445923],[-74.1845398,40.4446053],[-74.1845141,40.4446241],[-74.1844876,40.4446435],[-74.1844308,40.4447043],[-74.1844277,40.4447073],[-74.1843913,40.4447431],[-74.1843562,40.4447842],[-74.1843079,40.4448285],[-74.1842698,40.4448652],[-74.1842289,40.4449018],[-74.1841807,40.4449417],[-74.1841003,40.4450005],[-74.1840517,40.445036],[-74.1839742,40.4450833],[-74.1839102,40.4451337],[-74.1838345,40.4451839],[-74.1837776,40.4452271],[-74.1837255,40.4452738],[-74.1836922,40.4453152],[-74.1836542,40.4453764],[-74.1836351,40.4454124],[-74.1836184,40.4454592],[-74.1836064,40.4455079],[-74.1836061,40.4455602],[-74.1836154,40.4455963],[-74.1836317,40.445645],[-74.1836527,40.44571],[-74.1836735,40.4457984],[-74.183686,40.4458831],[-74.1836967,40.4459586],[-74.1836975,40.4459643],[-74.1837301,40.4460527],[-74.1837555,40.446161],[-74.1837881,40.4462585],[-74.1838209,40.4463271],[-74.1838584,40.4463776],[-74.18391,40.4464265],[-74.1839602,40.4464522],[-74.1839878,40.4464664],[-74.1840867,40.4465045],[-74.1841975,40.4465391],[-74.1843361,40.4465792],[-74.1843923,40.4465989],[-74.1844508,40.4466209],[-74.1845544,40.4466717],[-74.1846579,40.4467405],[-74.1847615,40.4467948],[-74.1848765,40.4468374],[-74.1849618,40.4468621],[-74.1850526,40.4468759],[-74.1850703,40.4468786],[-74.1851954,40.4468771],[-74.1854606,40.4468755],[-74.1856473,40.4468838],[-74.1859045,40.4469115],[-74.1860412,40.446937],[-74.1862156,40.4469881],[-74.1866728,40.44713],[-74.186999,40.447206],[-74.1871663,40.4472426],[-74.187182,40.4472464],[-74.1872123,40.4472551],[-74.1872475,40.4472652],[-74.1867373,40.4477985],[-74.186645,40.4479592],[-74.1866111,40.448005],[-74.1866061,40.4480363],[-74.1866038,40.4480763],[-74.1866035,40.4480804],[-74.1865815,40.4481483],[-74.1864025,40.4484635],[-74.1863925,40.4484821],[-74.1863879,40.4485126],[-74.1863889,40.4485321],[-74.1864195,40.4486629],[-74.1864209,40.4486984],[-74.186413,40.4487221],[-74.1864001,40.4487534],[-74.1863703,40.4488262],[-74.1863602,40.4488635],[-74.1863601,40.4488889],[-74.1863754,40.448933],[-74.1864544,40.4491231],[-74.1864542,40.4491537],[-74.1864506,40.449162],[-74.1864453,40.449174],[-74.186438,40.4491811],[-74.1863578,40.4493025],[-74.1862806,40.4494157],[-74.1862428,40.4494737],[-74.1861905,40.4496037],[-74.1861682,40.4497345],[-74.1861465,40.4499183],[-74.1862733,40.4501263],[-74.1863081,40.4501674],[-74.186365,40.4502146],[-74.1863861,40.4502325],[-74.1864203,40.4502438],[-74.1864807,40.4502502],[-74.1865198,40.4502615],[-74.1865523,40.4502778],[-74.1865784,40.4502953],[-74.1866011,40.4503228],[-74.1866123,40.4503777],[-74.1866105,40.4504001],[-74.186599,40.4504138],[-74.1865745,40.4504349],[-74.1865516,40.4504473],[-74.1865335,40.4504672],[-74.1865318,40.4504859],[-74.1865399,40.4505046],[-74.1865821,40.4505371],[-74.1866147,40.4505634],[-74.1867009,40.450611],[-74.1867367,40.450646],[-74.1867594,40.4506747],[-74.1867658,40.4506972],[-74.1867657,40.4507259],[-74.1867656,40.4507421],[-74.1867948,40.4507733],[-74.1868192,40.4507893],[-74.1868394,40.4508258],[-74.1868571,40.4508956],[-74.1868586,40.4509231],[-74.1868583,40.4509767],[-74.1868508,40.4510066],[-74.1868344,40.4510402],[-74.1868178,40.4510825],[-74.1868226,40.4511149],[-74.1868224,40.4511449],[-74.1868142,40.4511685],[-74.1866059,40.4514266],[-74.1863217,40.4517727],[-74.1861919,40.4519542],[-74.1860785,40.4521762],[-74.186011,40.452363],[-74.1859959,40.4523842],[-74.1859712,40.4524265],[-74.1859563,40.4524701],[-74.1859447,40.4525261],[-74.1859379,40.4525525],[-74.185827,40.4527736],[-74.1858047,40.452805],[-74.1857833,40.4528274],[-74.1857702,40.4528548],[-74.1857651,40.4528834],[-74.1857719,40.4529025],[-74.185774,40.4529084],[-74.185795,40.4529545],[-74.1858096,40.4529658],[-74.185834,40.4529796],[-74.1858927,40.452991],[-74.1859351,40.453006],[-74.1859871,40.4530386],[-74.1860001,40.4530723],[-74.1859999,40.4531109],[-74.1859916,40.4531383],[-74.185967,40.4531594],[-74.1859278,40.4531706],[-74.1858707,40.4531704],[-74.1857793,40.4531689],[-74.1857189,40.4531762],[-74.1856666,40.4531948],[-74.1855698,40.4532577],[-74.1851826,40.4536023],[-74.1849116,40.4538433],[-74.1848095,40.4539361],[-74.1847279,40.4540224],[-74.1843199,40.4545212],[-74.1842428,40.454607],[-74.1840742,40.4547788],[-74.1837277,40.4551275],[-74.1836702,40.4552045],[-74.1835428,40.4554381],[-74.1835079,40.4554713],[-74.1834729,40.4554978],[-74.1831502,40.4559303],[-74.1829707,40.4561283],[-74.1828337,40.4562631],[-74.1827583,40.4563446],[-74.182716,40.4563829],[-74.1826259,40.4564599],[-74.1825996,40.4564835],[-74.1825881,40.4565159],[-74.1825684,40.4565395],[-74.1825454,40.4565669],[-74.1825192,40.4565892],[-74.1824716,40.4566489],[-74.1824191,40.4567149],[-74.1823765,40.4567793],[-74.1823266,40.4568379],[-74.1821472,40.4570162],[-74.1819907,40.4571499],[-74.1818208,40.4573229],[-74.1815157,40.4576049],[-74.1814742,40.4576299],[-74.1814372,40.4576396],[-74.181398,40.4576482],[-74.1813669,40.4576668],[-74.1813472,40.4576792],[-74.1813276,40.4576867],[-74.1812868,40.457694],[-74.1812443,40.4577114],[-74.1812197,40.4577238],[-74.1811773,40.4577349],[-74.1811397,40.457746],[-74.1811086,40.4577621],[-74.1810726,40.4577882],[-74.1810513,40.4578031],[-74.1810283,40.4578317],[-74.1810184,40.4578503],[-74.1809889,40.457874],[-74.1809586,40.4578951],[-74.1809022,40.4579148],[-74.1808172,40.4579508],[-74.18076,40.4579755],[-74.1804916,40.4581269],[-74.1804621,40.458153],[-74.1804367,40.4581742],[-74.1803471,40.4582107],[-74.1797229,40.4584725],[-74.1796879,40.4584872],[-74.1795966,40.4585142],[-74.1795431,40.45853],[-74.17901,40.4586127],[-74.1789414,40.4586224],[-74.1788973,40.4586261],[-74.1788252,40.4586299],[-74.1784292,40.4586013],[-74.1783325,40.4585903],[-74.1782956,40.4585781],[-74.1782815,40.458574],[-74.1782587,40.4585605],[-74.1782394,40.4585456],[-74.1782341,40.4585375],[-74.1782219,40.4585133],[-74.1782203,40.4585089],[-74.1782185,40.4585039],[-74.1782106,40.458479],[-74.1782028,40.4584601],[-74.1781898,40.4584315],[-74.1781889,40.4584248],[-74.1781863,40.45841],[-74.1781908,40.4583909],[-74.1781997,40.4583788],[-74.1782103,40.458364],[-74.1782174,40.45836],[-74.1782333,40.458352],[-74.1782385,40.4583507],[-74.1782491,40.4583467],[-74.1782844,40.4583427],[-74.1783618,40.4583419],[-74.1783812,40.4583386],[-74.1783935,40.4583326],[-74.1784211,40.4583033],[-74.1784429,40.4582409],[-74.178461,40.4581761],[-74.1784594,40.4581514],[-74.1784578,40.4581384],[-74.1784535,40.458123],[-74.1784179,40.4579981],[-74.1784119,40.4579886],[-74.1784062,40.4579825],[-74.1783807,40.4579751],[-74.1783548,40.4579669],[-74.1782958,40.4579318],[-74.1782903,40.4579234],[-74.1782811,40.4579183],[-74.1782721,40.4579149],[-74.1782449,40.4579109],[-74.1782327,40.4579105],[-74.1782279,40.4579091],[-74.1782246,40.457907],[-74.1782226,40.457904],[-74.1782196,40.4578992],[-74.1782179,40.4578888],[-74.1782079,40.4578499],[-74.1781876,40.457833],[-74.1781571,40.4578199],[-74.1781008,40.4578044],[-74.1780563,40.4578026],[-74.1780445,40.4578019],[-74.1780304,40.4578045],[-74.1779687,40.4578194],[-74.1779517,40.457818],[-74.1779471,40.4578162],[-74.1779445,40.4578142],[-74.1779283,40.4577911],[-74.1779108,40.4577803],[-74.1778932,40.4577762],[-74.1778835,40.4577755],[-74.1778562,40.4577748],[-74.1776696,40.457797],[-74.1771741,40.457782],[-74.1770971,40.4577848],[-74.1770777,40.457782],[-74.1770549,40.4577725],[-74.1769737,40.4577243],[-74.1769403,40.4577208],[-74.1768734,40.4577199],[-74.1768241,40.4577198],[-74.1767823,40.457724],[-74.1767312,40.4577279],[-74.1767114,40.4577242],[-74.1766666,40.4577123],[-74.1765427,40.4576615],[-74.1765111,40.4576467],[-74.1764488,40.4576068],[-74.1764169,40.4575677],[-74.1764117,40.4575516],[-74.17641,40.4575301],[-74.1764136,40.4575139],[-74.1764154,40.4575059],[-74.176419,40.4574978],[-74.1765834,40.4572389],[-74.176583,40.4572366],[-74.176576,40.4571999],[-74.1765522,40.4571723],[-74.1764958,40.4571473],[-74.1764565,40.4571158],[-74.176407,40.4570816],[-74.176366,40.4570501],[-74.176308,40.4569949],[-74.1762723,40.456949],[-74.1762639,40.4569058],[-74.1762675,40.4568613],[-74.1762694,40.4568339],[-74.1762507,40.4568011],[-74.17622,40.4567696],[-74.1761688,40.4567302],[-74.1761398,40.4567079],[-74.1761142,40.456679],[-74.1761058,40.4566502],[-74.1761042,40.4566201],[-74.1761009,40.4565965],[-74.1760838,40.4565807],[-74.1760582,40.4565663],[-74.176036,40.4565479],[-74.1760104,40.4565334],[-74.1759933,40.4565294],[-74.1759624,40.456532],[-74.1759179,40.4565371],[-74.1758922,40.4565344],[-74.1758563,40.4565173],[-74.1757768,40.4564798],[-74.1757238,40.4564534],[-74.1757084,40.4564377],[-74.1757068,40.4564259],[-74.1757085,40.4564141],[-74.1757172,40.4564037],[-74.1757224,40.4563854],[-74.1757156,40.4563644],[-74.1757003,40.4563539],[-74.1756763,40.4563499],[-74.1756488,40.4563603],[-74.1756248,40.4563694],[-74.1755922,40.4563693],[-74.1755683,40.4563575],[-74.175553,40.456343],[-74.1755513,40.4563299],[-74.1755428,40.4563103],[-74.1755258,40.4562984],[-74.1754967,40.4562866],[-74.1754608,40.4562799],[-74.1754402,40.4562681],[-74.1754283,40.456251],[-74.1754199,40.4562275],[-74.175396,40.4562025],[-74.1753567,40.4561815],[-74.1753037,40.4561538],[-74.1752798,40.4561407],[-74.1752491,40.4561105],[-74.1752219,40.4560751],[-74.1752015,40.4560332],[-74.175143,40.4559159],[-74.1751346,40.4558831],[-74.1751314,40.4558347],[-74.1751349,40.4558046],[-74.1751316,40.4557797],[-74.1751147,40.4557456],[-74.1750849,40.4557137],[-74.1750669,40.4556944],[-74.1748531,40.4554511],[-74.1743676,40.4550486],[-74.173965,40.4546901],[-74.1735067,40.4543152],[-74.173382,40.4542213],[-74.1727886,40.4537384],[-74.1720037,40.4530981],[-74.1713263,40.4526404],[-74.1711129,40.452535],[-74.1710299,40.4525275],[-74.1710025,40.4525295],[-74.1709044,40.4525386],[-74.1708199,40.4525635],[-74.1708089,40.4525635],[-74.1707994,40.4525572],[-74.1707257,40.4524753],[-74.1707121,40.4524616],[-74.1707013,40.4524186],[-74.1707013,40.4524123],[-74.1707014,40.4524029],[-74.1707083,40.4523924],[-74.1707303,40.4523778],[-74.1709533,40.4522171],[-74.1709616,40.4522035],[-74.1709624,40.4521805],[-74.1709597,40.4521616],[-74.1709325,40.4521091],[-74.1707193,40.4518749],[-74.1703647,40.4516105],[-74.1703498,40.4516286],[-74.1702872,40.4517156],[-74.1702495,40.4517055],[-74.1703285,40.4515849],[-74.1699563,40.4512884],[-74.169531,40.4510134],[-74.1692387,40.450857],[-74.1691173,40.4508095],[-74.1690489,40.4507779],[-74.1685542,40.4504596],[-74.1677591,40.4499512],[-74.1677285,40.4499276],[-74.1676956,40.4498388],[-74.1676871,40.4498244],[-74.1676753,40.4498087],[-74.1676446,40.4497917],[-74.1675986,40.449768],[-74.1675526,40.449747],[-74.1674774,40.4497442],[-74.1674056,40.4497505],[-74.1673698,40.4497517],[-74.1672274,40.4496917],[-74.1669949,40.4495701],[-74.166534,40.4493002],[-74.1658085,40.4488559],[-74.1655009,40.4486943],[-74.1654121,40.4486231],[-74.1653047,40.4485653],[-74.1652365,40.4485443],[-74.1651699,40.4485375],[-74.1651357,40.4485427],[-74.1651019,40.4485491],[-74.1650417,40.4485606],[-74.1649596,40.4485891],[-74.164915,40.4486151],[-74.1649098,40.4486347],[-74.1649113,40.4486777],[-74.1649265,40.4487143],[-74.1649309,40.4487331],[-74.1649348,40.4487496],[-74.1649858,40.4488111],[-74.1650062,40.4488229],[-74.1650164,40.4488359],[-74.165018,40.4488542],[-74.1650146,40.448866],[-74.1650094,40.4488699],[-74.1649803,40.448875],[-74.1649632,40.4488815],[-74.1649495,40.4488893],[-74.1649323,40.4489062],[-74.1649311,40.44891],[-74.1649272,40.4489218],[-74.1649134,40.448944],[-74.1649038,40.4489502],[-74.1648352,40.4489601],[-74.1647825,40.4489562],[-74.1647374,40.4489464],[-74.1646898,40.448931],[-74.1646447,40.4489193],[-74.164587,40.4489134],[-74.1645644,40.4489095],[-74.1636534,40.4487008],[-74.1635715,40.4486862],[-74.1635254,40.4486835],[-74.1634878,40.4486912],[-74.1634467,40.4486989],[-74.1634245,40.4486989],[-74.1633828,40.4486909],[-74.1633437,40.4486428],[-74.1632601,40.4485851],[-74.1631931,40.4485747],[-74.1631393,40.448595],[-74.1630289,40.4486559],[-74.162981,40.4486623],[-74.1629571,40.4486583],[-74.1628633,40.4486202],[-74.1628258,40.4486188],[-74.1628035,40.4486279],[-74.1626922,40.4486824],[-74.1626768,40.4486888],[-74.1626426,40.4486927],[-74.1622733,40.4486984],[-74.162081,40.4486944],[-74.1619927,40.4486764],[-74.1619621,40.4486528],[-74.161952,40.4486084],[-74.1619385,40.4485771],[-74.1618909,40.448543],[-74.1618705,40.4485194],[-74.1618341,40.4485016],[-74.1617955,40.4484827],[-74.1617273,40.4484642],[-74.1615883,40.448382],[-74.1614951,40.4482553],[-74.1614327,40.4482073],[-74.1613478,40.4481832],[-74.1612852,40.4481864],[-74.1611329,40.4482201],[-74.1610657,40.448213],[-74.1609906,40.4482023],[-74.1608166,40.4481496],[-74.1607552,40.4481416],[-74.1606869,40.4481388],[-74.1605888,40.448164],[-74.1605363,40.4481775],[-74.1604111,40.4482252],[-74.1602612,40.4482534],[-74.1601583,40.4482531],[-74.1601107,40.4482415],[-74.1600766,40.4482179],[-74.1599848,40.4481237],[-74.1598877,40.4480807],[-74.1598758,40.4480686],[-74.1598571,40.4480299],[-74.1598838,40.4479766],[-74.1598705,40.4479315],[-74.1598407,40.4478923],[-74.1597843,40.4478411],[-74.1596713,40.4478075],[-74.1596618,40.4478083],[-74.1596104,40.4477954],[-74.1595033,40.4477421],[-74.1594665,40.4477249],[-74.1594207,40.4477171],[-74.1592713,40.4477077],[-74.1591814,40.447703],[-74.1591465,40.4477051],[-74.1590971,40.447716],[-74.1590448,40.4477314],[-74.158981,40.4477268],[-74.1589462,40.44772],[-74.1588884,40.4476844],[-74.1588682,40.4476577],[-74.1588423,40.4476177],[-74.1588076,40.4475844],[-74.1587671,40.4475643],[-74.1587294,40.4475442],[-74.1587121,40.4475309],[-74.1586977,40.4474998],[-74.1586892,40.4474709],[-74.1586864,40.4474443],[-74.1586693,40.4473844],[-74.1586376,40.4473377],[-74.1586088,40.4472911],[-74.1585881,40.4472351],[-74.1585564,40.4471873],[-74.158319,40.4470929],[-74.1581589,40.4470936],[-74.1581187,40.4470969],[-74.1580904,40.4470998],[-74.158077,40.4471023],[-74.1580605,40.4471104],[-74.1580088,40.4471461],[-74.1579728,40.4471973],[-74.1579253,40.4473048],[-74.1579073,40.4473252],[-74.1578848,40.4473405],[-74.1578468,40.4473541],[-74.1577997,40.4473659],[-74.1577796,40.447371],[-74.1577639,40.4473795],[-74.1577504,40.4473862],[-74.1577257,40.4474101],[-74.1577189,40.4474254],[-74.1577099,40.4474528],[-74.1576963,40.4474732],[-74.1576783,40.4474971],[-74.1576625,40.4475175],[-74.1576356,40.4475397],[-74.1576042,40.4475635],[-74.1575773,40.4475805],[-74.157528,40.447594],[-74.1574967,40.4475956],[-74.157327,40.447579],[-74.1573167,40.447578],[-74.1573145,40.447578],[-74.1572765,40.4475728],[-74.1572341,40.4475522],[-74.1572007,40.4475196],[-74.1571697,40.4474648],[-74.1571632,40.4474323],[-74.1571476,40.4474135],[-74.1571142,40.4473963],[-74.1570762,40.4473911],[-74.1570561,40.4473859],[-74.1570226,40.4473721],[-74.1569157,40.4472898],[-74.1568956,40.4472846],[-74.1568687,40.4472845],[-74.1568581,40.4472896],[-74.156853,40.4472999],[-74.1568749,40.4473922],[-74.1568323,40.4474177],[-74.1568076,40.4474296],[-74.1567763,40.4474329],[-74.1566554,40.4473935],[-74.156506,40.4473638],[-74.1564323,40.4473567],[-74.1563898,40.4473617],[-74.1563584,40.4473753],[-74.1563135,40.4474059],[-74.1562828,40.4474202],[-74.1562399,40.4474631],[-74.1562121,40.4475032],[-74.1561516,40.4475548],[-74.1560826,40.4475851],[-74.1560737,40.4475891],[-74.1559682,40.4476022],[-74.1559059,40.4476183],[-74.1558803,40.4476249],[-74.1557784,40.4476601],[-74.1557382,40.4476849],[-74.155665,40.4477614],[-74.155627,40.4478322],[-74.1556015,40.4479145],[-74.1555912,40.4479624],[-74.1555885,40.4480027],[-74.1555883,40.4480391],[-74.1555932,40.4480717],[-74.155593,40.4481005],[-74.1555853,40.4481273],[-74.1555827,40.4481541],[-74.1555825,40.4481867],[-74.1555696,40.448271],[-74.155562,40.4482825],[-74.1555469,40.4482863],[-74.1555143,40.4482747],[-74.1554844,40.4482459],[-74.1554744,40.4482286],[-74.1554619,40.4482189],[-74.1554469,40.4482189],[-74.1554242,40.4482323],[-74.1554166,40.4482571],[-74.1554114,40.4482897],[-74.1554086,40.4483357],[-74.1554135,40.4483722],[-74.1554234,40.4483914],[-74.1554434,40.4484087],[-74.1554508,40.448424],[-74.1554557,40.4484509],[-74.155468,40.4485065],[-74.1554779,40.4485257],[-74.1554929,40.4485373],[-74.1555205,40.4485489],[-74.155553,40.4485681],[-74.1556018,40.4485903],[-74.1556068,40.448598],[-74.1556288,40.4487093],[-74.1556237,40.4487227],[-74.1556036,40.4487284],[-74.155566,40.4487206],[-74.155536,40.4487032],[-74.155526,40.4487013],[-74.1554983,40.4487031],[-74.1554832,40.4487203],[-74.1554831,40.4487472],[-74.1554955,40.448776],[-74.1555179,40.4488124],[-74.1555777,40.448897],[-74.1555875,40.4489411],[-74.1555873,40.4489737],[-74.1555721,40.4489928],[-74.1555395,40.4490042],[-74.1555168,40.4490233],[-74.1555115,40.4490712],[-74.1555187,40.4491345],[-74.1555485,40.4492017],[-74.1555758,40.4492593],[-74.1556984,40.4495674],[-74.1557032,40.4496134],[-74.1556951,40.4497284],[-74.1556849,40.4497705],[-74.1556646,40.4498165],[-74.1556617,40.449874],[-74.1556664,40.4499373],[-74.1556812,40.4499929],[-74.1557417,40.4501953],[-74.1557592,40.4502107],[-74.1558556,40.4502493],[-74.1559082,40.4502706],[-74.1559595,40.4502976],[-74.1559777,40.4503113],[-74.155987,40.4503182],[-74.1560057,40.4503322],[-74.1560557,40.4503813],[-74.1561242,40.4504649],[-74.1561257,40.4504675],[-74.1561611,40.45053],[-74.1562311,40.4507044],[-74.1562386,40.4507906],[-74.1562456,40.450899],[-74.156253,40.4509335],[-74.1562679,40.4509623],[-74.1562878,40.4509988],[-74.1562977,40.4510237],[-74.1563246,40.4511023],[-74.156358,40.4512965],[-74.1563704,40.4514626],[-74.1563581,40.4516014],[-74.15634,40.4516878],[-74.1562478,40.4520775],[-74.1561941,40.4522729],[-74.1561891,40.4523052],[-74.1561772,40.4523811],[-74.1561775,40.4524719],[-74.15617,40.4526008],[-74.1561763,40.4526807],[-74.1561787,40.4527037],[-74.1561749,40.4527152],[-74.1561648,40.4527238],[-74.1561485,40.4527256],[-74.1561221,40.4527246],[-74.1561134,40.4527207],[-74.1560884,40.4527044],[-74.1560734,40.4526804],[-74.1560187,40.4525939],[-74.1560038,40.4525642],[-74.1559913,40.4525347],[-74.1559851,40.45252],[-74.1559766,40.4524817],[-74.1559521,40.4523637],[-74.1558542,40.4520035],[-74.1558029,40.451838],[-74.1557908,40.4517545],[-74.1557835,40.4517085],[-74.1557674,40.4516692],[-74.1557475,40.4516375],[-74.1557276,40.4516087],[-74.1556488,40.4515134],[-74.1556149,40.4514528],[-74.155283,40.4501757],[-74.1549179,40.4489736],[-74.1548888,40.4489026],[-74.1548643,40.448859],[-74.154829,40.4488142],[-74.1547742,40.4487647],[-74.1547335,40.4487072],[-74.15472,40.4486732],[-74.1547019,40.4486043],[-74.154666,40.4485504],[-74.1546237,40.4484746],[-74.1545887,40.4483405],[-74.1545737,40.4483251],[-74.154505,40.4482915],[-74.1541034,40.4481596],[-74.1538666,40.4481001],[-74.153759,40.4480787],[-74.153572,40.4480388],[-74.1533282,40.4479974],[-74.1531294,40.4479762],[-74.1530554,40.4479692],[-74.1527767,40.4480411],[-74.1525577,40.448154],[-74.152357,40.4482345],[-74.1522173,40.4482712],[-74.1519986,40.4483192],[-74.1518255,40.4483395],[-74.1516843,40.4483634],[-74.1516083,40.448398],[-74.1515261,40.4484534],[-74.1515078,40.4484672],[-74.1514683,40.4484833],[-74.1514227,40.4484971],[-74.1513802,40.4485016],[-74.1513438,40.4485015],[-74.1511511,40.4484855],[-74.1510058,40.4484891],[-74.1508565,40.4484957],[-74.1507491,40.448509],[-74.1506873,40.4485255],[-74.1504558,40.4485934],[-74.1503234,40.4486444],[-74.1502278,40.4486917],[-74.1501578,40.4487355],[-74.1501182,40.4487508],[-74.1500576,40.4487607],[-74.1500393,40.4487629],[-74.1500331,40.4487626],[-74.1500085,40.4487575],[-74.1499544,40.4487432],[-74.1499162,40.448735],[-74.1498647,40.4487339],[-74.1497444,40.4487537],[-74.1496967,40.4487677],[-74.1496636,40.4487898],[-74.1496225,40.4488219],[-74.1495973,40.4488491],[-74.1495734,40.4488722],[-74.1495522,40.4488843],[-74.1495217,40.4488943],[-74.1494808,40.4488972],[-74.1494438,40.4488991],[-74.1494173,40.4489091],[-74.1493974,40.4489292],[-74.1493761,40.4489675],[-74.1493526,40.4490141],[-74.1493371,40.4490297],[-74.1493219,40.4490389],[-74.1481457,40.4496177],[-74.1481211,40.4495934],[-74.1479492,40.4494341],[-74.1475774,40.4491669],[-74.1474461,40.4490837],[-74.147309,40.4489894],[-74.1472979,40.4489832],[-74.1470375,40.4488387],[-74.1471857,40.4487676],[-74.1472915,40.4486919],[-74.1473798,40.4486027],[-74.1474446,40.4485157],[-74.1474847,40.4484132],[-74.1474927,40.4483454],[-74.1474956,40.4482891],[-74.1474883,40.448227],[-74.1474727,40.4481803],[-74.1474234,40.4480907],[-74.1474089,40.4480759],[-74.1473215,40.4479875],[-74.1471742,40.4478797],[-74.1471626,40.447873],[-74.147046,40.4477832],[-74.146979,40.4477069],[-74.1469179,40.4476284],[-74.1468805,40.4475187],[-74.1468634,40.4474225],[-74.1468522,40.4473241],[-74.1468629,40.4472369],[-74.1468807,40.4471989],[-74.1469219,40.4471521],[-74.146969,40.4471008],[-74.1470074,40.4470361],[-74.1470253,40.4469758],[-74.1470257,40.4468952],[-74.1470172,40.4468371],[-74.1470059,40.4467587],[-74.1469949,40.4466357],[-74.1469753,40.4464635],[-74.1469557,40.4462823],[-74.1469554,40.4461984],[-74.1469513,40.4461559],[-74.1469619,40.4460821],[-74.1469794,40.4459614],[-74.1470139,40.4458016],[-74.1470468,40.4456541],[-74.1470651,40.4455144],[-74.1470739,40.4453747],[-74.1470581,40.4453075],[-74.1470351,40.4452493],[-74.1470046,40.4452],[-74.1469624,40.4451428],[-74.1469262,40.4450846],[-74.146895,40.4450297],[-74.146882,40.4449816],[-74.1468735,40.4449368],[-74.1468737,40.4448966],[-74.1468814,40.4448284],[-74.1469111,40.4447424],[-74.1469451,40.4446799],[-74.1469908,40.4446073],[-74.1470306,40.444556],[-74.1470645,40.4445158],[-74.1470821,40.444498],[-74.1471086,40.4444802],[-74.1471805,40.444448],[-74.1472465,40.4444214],[-74.1473139,40.4444093],[-74.1474112,40.4444073],[-74.1475107,40.4444188],[-74.1476174,40.4444303],[-74.1477726,40.4444353],[-74.1478765,40.44443],[-74.1479527,40.444419],[-74.1480186,40.4444047],[-74.1480787,40.4443859],[-74.1481227,40.4443603],[-74.1481536,40.4443336],[-74.1481713,40.4443112],[-74.1481909,40.4442692]]]}}
